[{"OBJECT_NAME":"ISS (ZVEZDA)","OBJECT_ID":"2000-037A","EPOCH":"2026-03-09T16:57:57.785184","MEAN_MOTION":15.485472,"ECCENTRICITY":0.00080196,"INCLINATION":51.6323,"RA_OF_ASC_NODE":72.271,"ARG_OF_PERICENTER":174.6781,"MEAN_ANOMALY":185.4294,"EPHEMERIS_TYPE":0,"CLASSIFICATION_TYPE":"U","NORAD_CAT_ID":26400,"ELEMENT_SET_NO":999,"REV_AT_EPOCH":55442,"BSTAR":0.0001550955,"MEAN_MOTION_DOT":7.976e-5,"MEAN_MOTION_DDOT":0},{"OBJECT_NAME":"MANDRAKE 2 ABLE","OBJECT_ID":"2021-059AE","EPOCH":"2026-03-09T11:47:46.014720","MEAN_MOTION":15.50735817,"ECCENTRICITY":0.00047846,"INCLINATION":97.704,"RA_OF_ASC_NODE":250.976,"ARG_OF_PERICENTER":6.4336,"MEAN_ANOMALY":353.6976,"EPHEMERIS_TYPE":0,"CLASSIFICATION_TYPE":"U","NORAD_CAT_ID":48907,"ELEMENT_SET_NO":999,"REV_AT_EPOCH":26165,"BSTAR":0.00043383769,"MEAN_MOTION_DOT":0.00024904,"MEAN_MOTION_DDOT":0}]
