ISS (ZVEZDA)            
1 26400U 00037A   26068.70691881  .00007976  00000+0  15510-3 0  9997
2 26400  51.6323  72.2710 0008020 174.6781 185.4294 15.48547200555988
MANDRAKE 2 ABLE         
1 48907U 21059AE  26068.49150480  .00024904  00000+0  43384-3 0  9991
2 48907  97.7040 250.9760 0004784   6.4336 353.6976 15.50735817261652
